NORAD_CAT_ID,OBJECT_NAME,OBJECT_TYPE,EPOCH,MEAN_MOTION,ECCENTRICITY,INCLINATION,RA_OF_ASC_NODE,ARG_OF_PERICENTER,MEAN_ANOMALY,BSTAR,MEAN_MOTION_DOT,MEAN_MOTION_DDOT,TLE_LINE0,TLE_LINE1,TLE_LINE2,SEMIMAJOR_AXIS,PERIOD,APOGEE,PERIGEE,DECAYED
52684.0,STARLINK-4014,PAYLOAD,2022-08-31 14:00:01,15.08814873,0.0002234999999999,53.2151,157.672,62.5684,23.4336,0.0018644,0.00029489,0.0,0 STARLINK-4014,1 52684U 22053AE  22243.58334491  .00029489  00000-0  18644-2 0  9994,2 52684  53.2151 157.6720 0002235  62.5684  23.4336 15.08814873  1305,6917.956999999999,95.439,541.368,538.276,0.0
52684.0,STARLINK-4014,PAYLOAD,2022-08-31 20:00:01,15.08845483,0.0002308,53.2153,156.5499,64.0395,300.6382,-0.00030077,-5.073e-05,0.0,0 STARLINK-4014,1 52684U 22053AE  22243.83334491 -.00005073  00000-0 -30077-3 0  9992,2 52684  53.2153 156.5499 0002308  64.0395 300.6382 15.08845483 16628,6917.864000000001,95.437,541.325,538.132,0.0
52684.0,STARLINK-4014,PAYLOAD,2022-08-31 22:00:00,15.08852532,0.0002355,53.2151,156.1763,62.5493,35.0266,-0.0015222,-0.00024442,0.0,0 STARLINK-4014,1 52684U 22053AE  22243.91667824 -.00024442  00000-0 -15222-2 0  9995,2 52684  53.2151 156.1763 0002355  62.5493  35.0266 15.08852532  1302,6917.842,95.437,541.336,538.078,0.0
52684.0,STARLINK-4014,PAYLOAD,2022-09-01 14:00:01,15.08835436,0.0002249,53.2152,153.1826,63.1978,57.6428,-0.00022393,-3.85e-05,0.0,0 STARLINK-4014,1 52684U 22053AE  22244.58335648 -.00003850  00000-0 -22393-3 0  9993,2 52684  53.2152 153.1826 0002249  63.1978  57.6428 15.08835436  1301,6917.894,95.438,541.315,538.2040000000002,0.0
52684.0,STARLINK-4014,PAYLOAD,2022-09-01 22:00:00,15.08843415,0.0002315,53.2153,151.687,62.3521,70.0122,-0.0014574,-0.00023411,0.0,0 STARLINK-4014,1 52684U 22053AE  22244.91667824 -.00023411  00000-0 -14574-2 0  9990,2 52684  53.2153 151.6870 0002315  62.3521  70.0122 15.08843415 16798,6917.87,95.437,541.336,538.133,0.0
52684.0,STARLINK-4014,PAYLOAD,2022-09-02 12:00:02,15.0883297,0.0002268,53.2154,149.0676,63.8672,358.8397,0.00060004,9.273e-05,0.0,0 STARLINK-4014,1 52684U 22053AE  22245.50002315  .00009273  00000-0  60004-3 0  9992,2 52684  53.2154 149.0676 0002268  63.8672 358.8397 15.08832970 16878,6917.901999999999,95.438,541.336,538.198,0.0
52684.0,STARLINK-4014,PAYLOAD,2022-09-02 14:00:01,15.0881886,0.0002238,53.2152,148.6932,64.6949,90.8515,0.0027586,0.00043864,0.0,0 STARLINK-4014,1 52684U 22053AE  22245.58334491  .00043864  00000-0  27586-2 0  9994,2 52684  53.2152 148.6932 0002238  64.6949  90.8515 15.08818860  1308,6917.945,95.439,541.3580000000002,538.262,0.0
52684.0,STARLINK-4014,PAYLOAD,2022-09-02 22:00:01,15.08858467,0.0002339,53.2154,147.1978,63.7918,103.4029,-0.0014079,-0.00022637,0.0,0 STARLINK-4014,1 52684U 22053AE  22245.91668981 -.00022637  00000-0 -14079-2 0  9995,2 52684  53.2154 147.1978 0002339  63.7918 103.4029 15.08858467  1300,6917.824000000001,95.436,541.307,538.071,0.0
52684.0,STARLINK-4014,PAYLOAD,2022-09-03 14:00:01,15.08817574,0.0002131999999999,53.2151,144.2039,65.9044,124.4558,0.0024135,0.00038309,0.0,0 STARLINK-4014,1 52684U 22053AE  22246.58334491  .00038309  00000-0  24135-2 0  9990,2 52684  53.2151 144.2039 0002132  65.9044 124.4558 15.08817574 17040,6917.949000000001,95.439,541.289,538.339,0.0
52684.0,STARLINK-4014,PAYLOAD,2022-09-03 22:00:00,15.08853422,0.0002229,53.2153,142.7087,64.5324,137.414,-0.0010456,-0.00016897,0.0,0 STARLINK-4014,1 52684U 22053AE  22246.91667824 -.00016897  00000-0 -10456-2 0  9997,2 52684  53.2153 142.7087 0002229  64.5324 137.4140 15.08853422  1306,6917.839,95.437,541.246,538.1619999999998,0.0
52684.0,STARLINK-4014,PAYLOAD,2022-09-04 12:00:00,15.08845746,0.0002049,53.2151,140.089,66.6142,65.6584,-0.0003711999999999,-6.192e-05,0.0,0 STARLINK-4014,1 52684U 22053AE  22247.50001157 -.00006192  00000-0 -37120-3 0  9999,2 52684  53.2151 140.0890 0002049  66.6142  65.6584 15.08845746 17185,6917.863,95.437,541.145,538.31,0.0
52684.0,STARLINK-4014,PAYLOAD,2022-09-04 14:00:01,15.08825235,0.0002048,53.215,139.7146,67.2967,157.9483,0.0025646,0.00040748,0.0,0 STARLINK-4014,1 52684U 22053AE  22247.58335648  .00040748  00000-0  25646-2 0  9994,2 52684  53.2150 139.7146 0002048  67.2967 157.9483 15.08825235  1305,6917.926,95.438,541.207,538.374,0.0
52684.0,STARLINK-4014,PAYLOAD,2022-09-04 20:00:01,15.0887459,0.000205,53.2153,138.5932,66.6711,77.1984,-0.0036889,-0.00058577,0.0,0 STARLINK-4014,1 52684U 22053AE  22247.83334491 -.00058577  00000-0 -36889-2 0  9999,2 52684  53.2153 138.5932 0002050  66.6711  77.1984 15.08874590  1308,6917.775,95.435,541.058,538.222,0.0
52684.0,STARLINK-4014,PAYLOAD,2022-09-05 14:00:01,15.08823091,0.000187,53.2148,135.2255,66.8949,193.096,0.0011078,0.00017379,0.0,0 STARLINK-4014,1 52684U 22053AE  22248.58334491  .00017379  00000-0  11078-2 0  9998,2 52684  53.2148 135.2255 0001870  66.8949 193.0960 15.08823091  1300,6917.932,95.439,541.091,538.503,0.0
52684.0,STARLINK-4014,PAYLOAD,2022-09-05 20:00:01,15.08853583,0.0001855,53.2151,134.1043,64.7921,113.881,-0.0041981,-0.0006651,0.0,0 STARLINK-4014,1 52684U 22053AE  22248.83334491 -.00066510  00000-0 -41981-2 0  9995,2 52684  53.2151 134.1043 0001855  64.7921 113.8810 15.08853583 17385,6917.839,95.437,540.987,538.4209999999998,0.0
52684.0,STARLINK-4014,PAYLOAD,2022-09-05 22:00:00,15.08832233,0.0001881,53.2149,133.7307,62.0203,209.5562,-0.0024794,-0.00039524,0.0,0 STARLINK-4014,1 52684U 22053AE  22248.91667824 -.00039524  00000-0 -24794-2 0  9991,2 52684  53.2149 133.7307 0001881  62.0203 209.5562 15.08832233  1304,6917.904,95.438,541.07,538.4680000000002,0.0
52684.0,STARLINK-4014,PAYLOAD,2022-09-06 04:00:00,15.08801047,0.0001865,53.2148,132.6089,57.3071,132.9499,0.0018231999999999,0.00028817,0.0,0 STARLINK-4014,1 52684U 22053AE  22249.16667824  .00028817  00000-0  18232-2 0  9990,2 52684  53.2148 132.6089 0001865  57.3071 132.9499 15.08801047 17438,6917.999,95.44,541.155,538.5740000000002,0.0
52684.0,STARLINK-4014,PAYLOAD,2022-09-06 14:00:01,15.08776152,0.0001686999999999,53.2149,130.7365,64.1727,230.5465,0.0033991,0.0005413,0.0,0 STARLINK-4014,1 52684U 22053AE  22249.58334491  .00054130  00000-0  33991-2 0  9993,2 52684  53.2149 130.7365 0001687  64.1727 230.5465 15.08776152  1306,6918.076,95.442,541.1080000000002,538.773,0.0
52684.0,STARLINK-4014,PAYLOAD,2022-09-06 22:00:00,15.08810112,0.0001831,53.215,129.2418,59.7555,246.5019,-0.00052301,-8.595e-05,0.0,0 STARLINK-4014,1 52684U 22053AE  22249.91667824 -.00008595  00000-0 -52301-3 0  9992,2 52684  53.2150 129.2418 0001831  59.7555 246.5019 15.08810112 17540,6917.972,95.439,541.1030000000002,538.57,0.0
52684.0,STARLINK-4014,PAYLOAD,2022-09-07 14:00:01,15.08802115,0.0001769,53.2152,126.2476,64.5492,264.8371,0.0033038,0.0005262999999999,0.0,0 STARLINK-4014,1 52684U 22053AE  22250.58334491  .00052630  00000-0  33038-2 0  9990,2 52684  53.2152 126.2476 0001769  64.5492 264.8371 15.08802115 17646,6917.996,95.44,541.085,538.637,0.0
52684.0,STARLINK-4014,PAYLOAD,2022-09-07 22:00:00,15.08835757,0.0001923,53.2153,124.7529,59.788,281.1697,-0.00051281,-8.439e-05,0.0,0 STARLINK-4014,1 52684U 22053AE  22250.91667824 -.00008439  00000-0 -51281-3 0  9997,2 52684  53.2153 124.7529 0001923  59.7880 281.1697 15.08835757  1305,6917.893,95.438,541.089,538.428,0.0
52684.0,STARLINK-4014,PAYLOAD,2022-09-08 06:00:00,15.08856419,0.0001896999999999,53.2153,123.2563,57.8239,294.7179,-0.0011083,-0.00017892,0.0,0 STARLINK-4014,1 52684U 22053AE  22251.25001157 -.00017892  00000-0 -11083-2 0  9994,2 52684  53.2153 123.2563 0001897  57.8239 294.7179 15.08856419 17742,6917.83,95.437,541.008,538.383,0.0
52684.0,STARLINK-4014,PAYLOAD,2022-09-08 14:00:01,15.08832434,0.0001824,53.2156,121.7585,64.9085,299.2425,0.0029173,0.00046438,0.0,0 STARLINK-4014,1 52684U 22053AE  22251.58334491  .00046438  00000-0  29173-2 0  9995,2 52684  53.2156 121.7585 0001824  64.9085 299.2425 15.08832434  1300,6917.904,95.438,541.03,538.507,0.0
52684.0,STARLINK-4014,PAYLOAD,2022-09-08 22:00:00,15.08865344,0.0001928,53.2156,120.2637,59.0857,316.6752,-0.0028646,-0.00045622,0.0,0 STARLINK-4014,1 52684U 22053AE  22251.91667824 -.00045622  00000-0 -28646-2 0  9991,2 52684  53.2156 120.2637 0001928  59.0857 316.6752 15.08865344  1302,6917.803000000001,95.436,541.002,538.3340000000002,0.0
52684.0,STARLINK-4014,PAYLOAD,2022-09-09 14:00:01,15.08849444,0.0001729,53.2157,117.269,63.8231,335.1486,0.00023717,3.489e-05,0.0,0 STARLINK-4014,1 52684U 22053AE  22252.58334491  .00003489  00000-0  23717-3 0  9994,2 52684  53.2157 117.2690 0001729  63.8231 335.1486 15.08849444  1309,6917.852,95.437,540.913,538.52,0.0
52684.0,STARLINK-4014,PAYLOAD,2022-09-09 22:00:00,15.08837389,0.0001810999999999,53.2157,115.7743,57.5231,353.0611,-0.00012993,-2.355e-05,0.0,0 STARLINK-4014,1 52684U 22053AE  22252.91667824 -.00002355  00000-0 -12993-3 0  9997,2 52684  53.2157 115.7743 0001811  57.5231 353.0611 15.08837389  1307,6917.888000000001,95.438,541.006,538.501,0.0
52684.0,STARLINK-4014,PAYLOAD,2022-09-10 12:00:00,15.088015900000002,0.0001554,53.2155,113.1537,61.5889,279.2911,0.0026907,0.00042749,0.0,0 STARLINK-4014,1 52684U 22053AE  22253.50001157  .00042749  00000-0  26907-2 0  9992,2 52684  53.2155 113.1537 0001554  61.5889 279.2911 15.08801590 18086,6917.998000000001,95.44,540.938,538.788,0.0
52684.0,STARLINK-4014,PAYLOAD,2022-09-10 14:00:01,15.08809886,0.0001569,53.2156,112.7796,62.5051,11.2636,0.0023191999999999,0.00036785,0.0,0 STARLINK-4014,1 52684U 22053AE  22253.58334491  .00036785  00000-0  23192-2 0  9996,2 52684  53.2156 112.7796 0001569  62.5051  11.2636 15.08809886  1308,6917.972,95.439,540.923,538.752,0.0
52684.0,STARLINK-4014,PAYLOAD,2022-09-10 22:00:00,15.08830425,0.0001708,53.2154,111.2849,56.2131,29.1337,6.6869e-07,-2.77e-06,0.0,0 STARLINK-4014,1 52684U 22053AE  22253.91667824 -.00000277  00000-0  66869-6 0  9992,2 52684  53.2154 111.2849 0001708  56.2131  29.1337 15.08830425  1302,6917.91,95.438,540.956,538.5930000000002,0.0
